start=new Date('2022-01-29T00:00:00.000Z').valueOf();
sats=[{"RCS_SIZE":"LARGE","COUNTRY_CODE":"US","EPHEMERIS_TYPE":"0","RA_OF_ASC_NODE":"274.0449","SEMIMAJOR_AXIS":"6925.368","LAUNCH_DATE":"2020-09-03","BSTAR":"0.00003173200000","TLE_LINE1":"1 46331U 20062G   22028.87616101  .00000191  00000-0  31732-4 0  9992","MEAN_ANOMALY":"291.3841","MEAN_MOTION_DDOT":"0.0000000000000","INCLINATION":"53.0529","PERIOD":"95.593","ECCENTRICITY":"0.00015120","MEAN_MOTION_DOT":"0.00000191","OBJECT_NAME":"STARLINK-1719","CLASSIFICATION_TYPE":"U","EPOCH":"2022-01-28T21:01:40.311264","PERIAPSIS":"546.186","GP_ID":"194843366","CENTER_NAME":"EARTH","SITE":"AFETR","OBJECT_ID":"2020-062G","MEAN_MOTION":"15.06393613","ELEMENT_SET_NO":"999","NORAD_CAT_ID":"46331","REF_FRAME":"TEME","DECAY_DATE":null,"REV_AT_EPOCH":"7810","APOAPSIS":"548.280","TLE_LINE2":"2 46331  53.0529 274.0449 0001512  68.7310 291.3841 15.06393613 78108","MEAN_ELEMENT_THEORY":"SGP4","ARG_OF_PERICENTER":"68.7310","FILE":"3286235","TIME_SYSTEM":"UTC","OBJECT_TYPE":"PAYLOAD"},{"OBJECT_ID":"2020-062H","MEAN_MOTION":"15.06400742","ELEMENT_SET_NO":"999","MEAN_ELEMENT_THEORY":"SGP4","TLE_LINE2":"2 46332  53.0543 274.2799 0002043  62.0408 298.0788 15.06400742 78094","ARG_OF_PERICENTER":"62.0408","FILE":"3286235","TIME_SYSTEM":"UTC","OBJECT_TYPE":"PAYLOAD","NORAD_CAT_ID":"46332","REF_FRAME":"TEME","DECAY_DATE":null,"REV_AT_EPOCH":"7809","APOAPSIS":"548.626","RA_OF_ASC_NODE":"274.2799","SEMIMAJOR_AXIS":"6925.346","LAUNCH_DATE":"2020-09-03","BSTAR":"0.00009762300000","TLE_LINE1":"1 46332U 20062H   22028.82087694  .00001173  00000-0  97623-4 0  9999","MEAN_ANOMALY":"298.0788","RCS_SIZE":"LARGE","COUNTRY_CODE":"US","EPHEMERIS_TYPE":"0","CLASSIFICATION_TYPE":"U","OBJECT_NAME":"STARLINK-1721","PERIAPSIS":"545.796","EPOCH":"2022-01-28T19:42:03.767616","GP_ID":"194843616","SITE":"AFETR","CENTER_NAME":"EARTH","MEAN_MOTION_DDOT":"0.0000000000000","INCLINATION":"53.0543","PERIOD":"95.592","MEAN_MOTION_DOT":"0.00001173","ECCENTRICITY":"0.00020430"},{"MEAN_MOTION":"15.06394234","ELEMENT_SET_NO":"999","OBJECT_ID":"2020-062J","OBJECT_TYPE":"PAYLOAD","TIME_SYSTEM":"UTC","FILE":"3286235","ARG_OF_PERICENTER":"68.8253","TLE_LINE2":"2 46333  53.0544 273.9248 0001443  68.8253 291.2890 15.06394234 78105","MEAN_ELEMENT_THEORY":"SGP4","APOAPSIS":"548.231","DECAY_DATE":null,"REV_AT_EPOCH":"7810","NORAD_CAT_ID":"46333","REF_FRAME":"TEME","TLE_LINE1":"1 46333U 20062J   22028.90196677 -.00000962  00000-0 -45688-4 0  9992","MEAN_ANOMALY":"291.2890","RA_OF_ASC_NODE":"273.9248","LAUNCH_DATE":"2020-09-03","BSTAR":"-0.00004568800000","SEMIMAJOR_AXIS":"6925.366","EPHEMERIS_TYPE":"0","COUNTRY_CODE":"US","RCS_SIZE":"LARGE","CENTER_NAME":"EARTH","SITE":"AFETR","GP_ID":"194844368","CLASSIFICATION_TYPE":"U","OBJECT_NAME":"STARLINK-1723","PERIAPSIS":"546.232","EPOCH":"2022-01-28T21:38:49.928928","MEAN_MOTION_DOT":"-0.00000962","ECCENTRICITY":"0.00014430","PERIOD":"95.593","MEAN_MOTION_DDOT":"0.0000000000000","INCLINATION":"53.0544"},{"OBJECT_ID":"2020-062K","MEAN_MOTION":"15.06386706","ELEMENT_SET_NO":"999","MEAN_ELEMENT_THEORY":"SGP4","TLE_LINE2":"2 46334  53.0529 254.0211 0001815  65.9388 294.1791 15.06386706 78386","FILE":"3286235","ARG_OF_PERICENTER":"65.9388","TIME_SYSTEM":"UTC","OBJECT_TYPE":"PAYLOAD","NORAD_CAT_ID":"46334","REF_FRAME":"TEME","DECAY_DATE":null,"REV_AT_EPOCH":"7838","APOAPSIS":"548.511","RA_OF_ASC_NODE":"254.0211","BSTAR":"-0.00011531000000","LAUNCH_DATE":"2020-09-03","SEMIMAJOR_AXIS":"6925.389","TLE_LINE1":"1 46334U 20062K   22028.87706949 -.00001998  00000-0 -11531-3 0  9997","MEAN_ANOMALY":"294.1791","RCS_SIZE":"LARGE","COUNTRY_CODE":"US","EPHEMERIS_TYPE":"0","OBJECT_NAME":"STARLINK-1725","CLASSIFICATION_TYPE":"U","PERIAPSIS":"545.997","EPOCH":"2022-01-28T21:02:58.803936","GP_ID":"194845118","CENTER_NAME":"EARTH","SITE":"AFETR","MEAN_MOTION_DDOT":"0.0000000000000","INCLINATION":"53.0529","PERIOD":"95.593","ECCENTRICITY":"0.00018150","MEAN_MOTION_DOT":"-0.00001998"},{"RCS_SIZE":"LARGE","COUNTRY_CODE":"US","EPHEMERIS_TYPE":"0","RA_OF_ASC_NODE":"274.0810","BSTAR":"0.00007275200000","LAUNCH_DATE":"2020-09-03","SEMIMAJOR_AXIS":"6925.343","TLE_LINE1":"1 46335U 20062L   22028.86510019  .00000802  00000-0  72752-4 0  9992","MEAN_ANOMALY":"300.6733","MEAN_MOTION_DDOT":"0.0000000000000","INCLINATION":"53.0545","PERIOD":"95.592","MEAN_MOTION_DOT":"0.00000802","ECCENTRICITY":"0.00015990","OBJECT_NAME":"STARLINK-1727","CLASSIFICATION_TYPE":"U","EPOCH":"2022-01-28T20:45:44.656416","PERIAPSIS":"546.101","GP_ID":"194843866","CENTER_NAME":"EARTH","SITE":"AFETR","OBJECT_ID":"2020-062L","MEAN_MOTION":"15.06401782","ELEMENT_SET_NO":"999","NORAD_CAT_ID":"46335","REF_FRAME":"TEME","DECAY_DATE":null,"REV_AT_EPOCH":"7810","APOAPSIS":"548.315","MEAN_ELEMENT_THEORY":"SGP4","TLE_LINE2":"2 46335  53.0545 274.0810 0001599  59.4414 300.6733 15.06401782 78100","ARG_OF_PERICENTER":"59.4414","FILE":"3286235","TIME_SYSTEM":"UTC","OBJECT_TYPE":"PAYLOAD"},{"MEAN_MOTION_DDOT":"0.0000000000000","INCLINATION":"53.0544","ECCENTRICITY":"0.00018860","MEAN_MOTION_DOT":"-0.00000211","PERIOD":"95.593","GP_ID":"194844116","OBJECT_NAME":"STARLINK-1738","CLASSIFICATION_TYPE":"U","EPOCH":"2022-01-28T20:32:29.751360","PERIAPSIS":"545.933","SITE":"AFETR","CENTER_NAME":"EARTH","COUNTRY_CODE":"US","RCS_SIZE":"LARGE","EPHEMERIS_TYPE":"0","RA_OF_ASC_NODE":"254.1330","SEMIMAJOR_AXIS":"6925.374","LAUNCH_DATE":"2020-09-03","BSTAR":"0.00000472040000","TLE_LINE1":"1 46336U 20062M   22028.85589990 -.00000211  00000-0  47204-5 0  9996","MEAN_ANOMALY":"293.2340","DECAY_DATE":null,"REV_AT_EPOCH":"7837","NORAD_CAT_ID":"46336","REF_FRAME":"TEME","APOAPSIS":"548.545","FILE":"3286235","ARG_OF_PERICENTER":"66.8848","MEAN_ELEMENT_THEORY":"SGP4","TLE_LINE2":"2 46336  53.0544 254.1330 0001886  66.8848 293.2340 15.06391776 78379","OBJECT_TYPE":"PAYLOAD","TIME_SYSTEM":"UTC","OBJECT_ID":"2020-062M","MEAN_MOTION":"15.06391776","ELEMENT_SET_NO":"999"},{"PERIOD":"95.592","MEAN_MOTION_DOT":"-0.00000401","ECCENTRICITY":"0.00017380","MEAN_MOTION_DDOT":"0.0000000000000","INCLINATION":"53.0521","CENTER_NAME":"EARTH","SITE":"AFETR","OBJECT_NAME":"STARLINK-1750","CLASSIFICATION_TYPE":"U","PERIAPSIS":"546.011","EPOCH":"2022-01-28T20:53:42.346464","GP_ID":"194844868","EPHEMERIS_TYPE":"0","RCS_SIZE":"LARGE","COUNTRY_CODE":"US","TLE_LINE1":"1 46337U 20062N   22028.87062901 -.00000401  00000-0 -80172-5 0  9990","MEAN_ANOMALY":"290.6645","RA_OF_ASC_NODE":"254.0454","LAUNCH_DATE":"2020-09-03","BSTAR":"-0.00000801720000","SEMIMAJOR_AXIS":"6925.350","APOAPSIS":"548.419","NORAD_CAT_ID":"46337","REF_FRAME":"TEME","DECAY_DATE":null,"REV_AT_EPOCH":"7838","TIME_SYSTEM":"UTC","OBJECT_TYPE":"PAYLOAD","MEAN_ELEMENT_THEORY":"SGP4","TLE_LINE2":"2 46337  53.0521 254.0454 0001738  69.4530 290.6645 15.06399496 78381","ARG_OF_PERICENTER":"69.4530","FILE":"3286235","MEAN_MOTION":"15.06399496","ELEMENT_SET_NO":"999","OBJECT_ID":"2020-062N"},{"LAUNCH_DATE":"2020-09-03","BSTAR":"0.00003215100000","SEMIMAJOR_AXIS":"6925.345","RA_OF_ASC_NODE":"274.1247","MEAN_ANOMALY":"298.8977","TLE_LINE1":"1 46338U 20062P   22028.85404420  .00000197  00000-0  32151-4 0  9998","COUNTRY_CODE":"US","RCS_SIZE":"LARGE","EPHEMERIS_TYPE":"0","GP_ID":"194844619","EPOCH":"2022-01-28T20:29:49.418880","PERIAPSIS":"545.861","OBJECT_NAME":"STARLINK-1752","CLASSIFICATION_TYPE":"U","SITE":"AFETR","CENTER_NAME":"EARTH","INCLINATION":"53.0542","MEAN_MOTION_DDOT":"0.0000000000000","ECCENTRICITY":"0.00019480","MEAN_MOTION_DOT":"0.00000197","PERIOD":"95.592","OBJECT_ID":"2020-062P","ELEMENT_SET_NO":"999","MEAN_MOTION":"15.06400998","ARG_OF_PERICENTER":"61.2208","FILE":"3286235","MEAN_ELEMENT_THEORY":"SGP4","TLE_LINE2":"2 46338  53.0542 274.1247 0001948  61.2208 298.8977 15.06400998 78099","OBJECT_TYPE":"PAYLOAD","TIME_SYSTEM":"UTC","REV_AT_EPOCH":"7809","DECAY_DATE":null,"REF_FRAME":"TEME","NORAD_CAT_ID":"46338","APOAPSIS":"548.560"},{"ELEMENT_SET_NO":"999","MEAN_MOTION":"15.06396530","OBJECT_ID":"2020-062R","APOAPSIS":"548.493","REF_FRAME":"TEME","NORAD_CAT_ID":"46340","REV_AT_EPOCH":"7810","DECAY_DATE":null,"TIME_SYSTEM":"UTC","OBJECT_TYPE":"PAYLOAD","MEAN_ELEMENT_THEORY":"SGP4","TLE_LINE2":"2 46340  53.0532 273.9426 0001832  65.0670 295.0509 15.06396530 78102","FILE":"3286235","ARG_OF_PERICENTER":"65.0670","EPHEMERIS_TYPE":"0","RCS_SIZE":"LARGE","COUNTRY_CODE":"US","MEAN_ANOMALY":"295.0509","TLE_LINE1":"1 46340U 20062R   22028.89364486  .00000524  00000-0  54082-4 0  9993","LAUNCH_DATE":"2020-09-03","BSTAR":"0.00005408200000","SEMIMAJOR_AXIS":"6925.359","RA_OF_ASC_NODE":"273.9426","PERIOD":"95.592","ECCENTRICITY":"0.00018320","MEAN_MOTION_DOT":"0.00000524","INCLINATION":"53.0532","MEAN_MOTION_DDOT":"0.0000000000000","SITE":"AFETR","CENTER_NAME":"EARTH","PERIAPSIS":"545.955","EPOCH":"2022-01-28T21:26:50.915904","OBJECT_NAME":"STARLINK-1759","CLASSIFICATION_TYPE":"U","GP_ID":"194843367"},{"MEAN_ANOMALY":"287.4031","TLE_LINE1":"1 46341U 20062S   22028.90010509 -.00007670  00000-0 -49671-3 0  9998","LAUNCH_DATE":"2020-09-03","BSTAR":"-0.00049671000000","SEMIMAJOR_AXIS":"6925.379","RA_OF_ASC_NODE":"253.9199","EPHEMERIS_TYPE":"0","RCS_SIZE":"LARGE","COUNTRY_CODE":"US","CENTER_NAME":"EARTH","SITE":"AFETR","PERIAPSIS":"545.917","EPOCH":"2022-01-28T21:36:09.079776","CLASSIFICATION_TYPE":"U","OBJECT_NAME":"STARLINK-1760","GP_ID":"194843617","PERIOD":"95.593","ECCENTRICITY":"0.00019160","MEAN_MOTION_DOT":"-0.00007670","INCLINATION":"53.0516","MEAN_MOTION_DDOT":"0.0000000000000","ELEMENT_SET_NO":"999","MEAN_MOTION":"15.06389964","OBJECT_ID":"2020-062S","TIME_SYSTEM":"UTC","OBJECT_TYPE":"PAYLOAD","TLE_LINE2":"2 46341  53.0516 253.9199 0001916  72.7168 287.4031 15.06389964 78399","MEAN_ELEMENT_THEORY":"SGP4","FILE":"3286235","ARG_OF_PERICENTER":"72.7168","APOAPSIS":"548.571","REF_FRAME":"TEME","NORAD_CAT_ID":"46341","REV_AT_EPOCH":"7839","DECAY_DATE":null}];
